[{"OBJECT_NAME":"STARLINK-4064","OBJECT_ID":"2022-053K","EPOCH":"2026-03-09T12:42:14.542272","MEAN_MOTION":15.08814941,"ECCENTRICITY":0.00013554,"INCLINATION":53.2176,"RA_OF_ASC_NODE":154.8427,"ARG_OF_PERICENTER":86.5614,"MEAN_ANOMALY":273.5533,"EPHEMERIS_TYPE":0,"CLASSIFICATION_TYPE":"U","NORAD_CAT_ID":52665,"ELEMENT_SET_NO":999,"REV_AT_EPOCH":21102,"BSTAR":-0.0002472712,"MEAN_MOTION_DOT":-4.218e-5,"MEAN_MOTION_DDOT":0},{"OBJECT_NAME":"YUNYAO-1 48","OBJECT_ID":"2025-059F","EPOCH":"2026-03-09T22:24:05.789376","MEAN_MOTION":15.10574052,"ECCENTRICITY":0.00165064,"INCLINATION":97.6074,"RA_OF_ASC_NODE":250.9983,"ARG_OF_PERICENTER":137.6901,"MEAN_ANOMALY":222.5605,"EPHEMERIS_TYPE":0,"CLASSIFICATION_TYPE":"U","NORAD_CAT_ID":63349,"ELEMENT_SET_NO":999,"REV_AT_EPOCH":5331,"BSTAR":0.00030523847,"MEAN_MOTION_DOT":4.989e-5,"MEAN_MOTION_DDOT":0}]
